*******************************************************************************
JPL/HORIZONS                138 Tolosa (A874 KA)           2023-Sep-04 11:04:36
Rec #:     138 (+COV) Soln.date: 2023-Aug-22_00:37:04  # obs: 10091 (1897-2023)
 
IAU76/J2000 helio. ecliptic osc. elements (au, days, deg., period=Julian yrs):
 
  EPOCH=  2457588.5 ! 2016-Jul-19.00 (TDB)         Residual RMS= .33512
   EC= .162278416895712    QR= 2.051446383085732   TP= 2457646.0068196598
   OM= 54.76167391321896   W=  260.8258658900135   IN= 3.203797990966326
   A= 2.448840312176065    MA= 345.2095044461185   ADIST= 2.846234241266397
   PER= 3.83221            N= .257195506           ANGMOM= .026562357
   DAN= 2.44768            DDN= 2.32422            L= 315.5734235
   B= -3.1627742           MOID= 1.04040003        TP= 2016-Sep-14.5068196598
 
Asteroid physical parameters (km, seconds, rotational period in hours):
   GM= n.a.                RAD= 26.4525            ROTPER= 10.101
   H= 9.06                 G= .150                 B-V= .877
                           ALBEDO= .273            STYP= S

ASTEROID comments: 
1: soln ref.= JPL#96, OCC=0
2: source=ORB
*******************************************************************************


*******************************************************************************
Ephemeris / API_USER Mon Sep  4 11:04:36 2023 Pasadena, USA      / Horizons
*******************************************************************************
Target body name: 138 Tolosa (A874 KA)            {source: JPL#96}
Center body name: Solar System Barycenter (0)     {source: DE441}
Center-site name: BODY CENTER
*******************************************************************************
Start time      : A.D. 2023-Aug-12 00:00:00.0000 TDB
Stop  time      : A.D. 2023-Aug-13 00:00:00.0000 TDB
Step-size       : 2880 minutes
*******************************************************************************
Center geodetic : 0.0, 0.0, 0.0                   {E-lon(deg),Lat(deg),Alt(km)}
Center cylindric: 0.0, 0.0, 0.0                   {E-lon(deg),Dxy(km),Dz(km)}
Center radii    : (undefined)
Small perturbers: Yes                             {source: SB441-N16}
Output units    : KM-S
Calendar mode   : Mixed Julian/Gregorian
Output type     : GEOMETRIC cartesian states
Output format   : 2 (position and velocity)
Reference frame : Ecliptic of J2000.0
*******************************************************************************
Initial IAU76/J2000 heliocentric ecliptic osculating elements (au, days, deg.):
  EPOCH=  2457588.5 ! 2016-Jul-19.00 (TDB)         Residual RMS= .33512        
   EC= .162278416895712    QR= 2.051446383085732   TP= 2457646.0068196598      
   OM= 54.76167391321896   W=  260.8258658900135   IN= 3.203797990966326       
  Equivalent ICRF heliocentric cartesian coordinates (au, au/d):
   X= 8.698169122680568E-01  Y=-1.681058530513605E+00  Z=-8.382001138008266E-01
  VX= 1.136107861378655E-02 VY= 5.625379839627510E-03 VZ= 2.083632350783101E-03
Asteroid physical parameters (km, seconds, rotational period in hours):        
   GM= n.a.                RAD= 26.4525            ROTPER= 10.101              
   H= 9.06                 G= .150                 B-V= .877                   
                           ALBEDO= .273            STYP= S                     
*******************************************************************************
JDTDB
   X     Y     Z
   VX    VY    VZ
*******************************************************************************
$$SOE
2460168.500000000 = A.D. 2023-Aug-12 00:00:00.0000 TDB 
 X =-2.496023525422564E+08 Y =-2.558815849828070E+08 Z = 3.114444875781655E+06
 VX= 1.600394091293382E+01 VY=-1.121604589164889E+01 VZ=-1.092656754535528E+00
$$EOE
*******************************************************************************
 
TIME

  Barycentric Dynamical Time ("TDB" or T_eph) output was requested. This
continuous coordinate time is equivalent to the relativistic proper time
of a clock at rest in a reference frame co-moving with the solar system
barycenter but outside the system's gravity well. It is the independent
variable in the solar system relativistic equations of motion.

  TDB runs at a uniform rate of one SI second per second and is independent
of irregularities in Earth's rotation.
 
CALENDAR SYSTEM

  Mixed calendar mode was active such that calendar dates after AD 1582-Oct-15
(if any) are in the modern Gregorian system. Dates prior to 1582-Oct-5 (if any)
are in the Julian calendar system, which is automatically extended for dates
prior to its adoption on 45-Jan-1 BC.  The Julian calendar is useful for
matching historical dates. The Gregorian calendar more accurately corresponds
to the Earth's orbital motion and seasons. A "Gregorian-only" calendar mode is
available if such physical events are the primary interest.

REFERENCE FRAME AND COORDINATES

  Ecliptic at the standard reference epoch

    Reference epoch: J2000.0
    X-Y plane: adopted Earth orbital plane at the reference epoch
               Note: IAU76 obliquity of 84381.448 arcseconds wrt ICRF X-Y plane
    X-axis   : ICRF
    Z-axis   : perpendicular to the X-Y plane in the directional (+ or -) sense
               of Earth's north pole at the reference epoch.

  Symbol meaning:

    JDTDB    Julian Day Number, Barycentric Dynamical Time
      X      X-component of position vector (km)
      Y      Y-component of position vector (km)
      Z      Z-component of position vector (km)
      VX     X-component of velocity vector (km/sec)                           
      VY     Y-component of velocity vector (km/sec)                           
      VZ     Z-component of velocity vector (km/sec)                           

ABERRATIONS AND CORRECTIONS

 Geometric state vectors have NO corrections or aberrations applied.

Computations by ...

    Solar System Dynamics Group, Horizons On-Line Ephemeris System
    4800 Oak Grove Drive, Jet Propulsion Laboratory
    Pasadena, CA  91109   USA

    General site: https://ssd.jpl.nasa.gov/
    Mailing list: https://ssd.jpl.nasa.gov/email_list.html
    System news : https://ssd.jpl.nasa.gov/horizons/news.html
    User Guide  : https://ssd.jpl.nasa.gov/horizons/manual.html
    Connect     : browser        https://ssd.jpl.nasa.gov/horizons/app.html#/x
                  API            https://ssd-api.jpl.nasa.gov/doc/horizons.html
                  command-line   telnet ssd.jpl.nasa.gov 6775
                  e-mail/batch   https://ssd.jpl.nasa.gov/ftp/ssd/hrzn_batch.txt
                  scripts        https://ssd.jpl.nasa.gov/ftp/ssd/SCRIPTS
    Author      : Jon.D.Giorgini@jpl.nasa.gov
*******************************************************************************
